*******************************************************************************
Ephemeris / WWW_USER Mon Mar 10 07:08:51 2025 Pasadena, USA      / Horizons    
*******************************************************************************
Target body name: (2018 OZ)                       {source: JPL#6}
Center body name: Earth (399)                     {source: DE441}
Center-site name: Mauna Kea
*******************************************************************************
Start time      : A.D. 2018-Nov-21 03:51:00.0000 UT      
Stop  time      : A.D. 2018-Nov-21 16:24:00.0000 UT      
Step-size       : 1 minutes
*******************************************************************************
Target pole/equ : undefined
Target radii    : undefined                                                    
Center geodetic : 204.5278, 19.8260847, 4.21024   {E-lon(deg),Lat(deg),Alt(km)}
Center cylindric: 204.5278, 6006.35451, 2151.0229 {E-lon(deg),Dxy(km),Dz(km)}
Center pole/equ : ITRF93                          {East-longitude positive}
Center radii    : 6378.137, 6378.137, 6356.752 km {Equator_a, b, pole_c}       
Target primary  : Sun
Vis. interferer : MOON (R_eq= 1737.400) km        {source: DE441}
Rel. light bend : Sun                             {source: DE441}
Rel. lght bnd GM: 1.3271E+11 km^3/s^2                                          
Small-body perts: Yes                             {source: SB441-N16}
Atmos refraction: NO (AIRLESS)
RA format       : HMS
Time format     : CAL 
Calendar mode   : Mixed Julian/Gregorian
RTS-only print  : NO       
EOP file        : eop.250307.p250603                                           
EOP coverage    : DATA-BASED 1962-JAN-20 TO 2025-MAR-07. PREDICTS-> 2025-JUN-02
Units conversion: 1 au= 149597870.700 km, c= 299792.458 km/s, 1 day= 86400.0 s 
Table cut-offs 1: Elevation (-90.0deg=NO ),Airmass (>38.000=NO), Daylight (YES)
Table cut-offs 2: Solar elongation (  0.0,180.0=NO ),Local Hour Angle( 0.0=NO )
Table cut-offs 3: RA/DEC angular rate (     0.0=NO )                           
*******************************************************************************
Initial IAU76/J2000 heliocentric ecliptic osculating elements (au, days, deg.):
  EPOCH=  2458323.5 ! 2018-Jul-24.00 (TDB)         Residual RMS= .14478        
   EC= .2444891433359997   QR= .7813773137930096   TP= 2458414.1453434308      
   OM= 132.5941973996665   W=  282.5797798661226   IN= 11.86066121595313       
  Equivalent ICRF heliocentric cartesian coordinates (au, au/d):
   X= 5.818664496311505E-01  Y=-8.413793559776328E-01  Z=-3.233166781784031E-01
  VX= 1.092981696788880E-02 VY= 1.198494789184266E-02 VZ= 1.554952570596135E-03
Asteroid physical parameters (km, seconds, rotational period in hours):        
   GM= n.a.                RAD= n.a.               ROTPER= n.a.                
   H= 24.9                 G= .150                 B-V= n.a.                   
                           ALBEDO= n.a.            STYP= n.a.                  
*******************************************************************************
 Date__(UT)__HR:MN     R.A._________(ICRF)_________DEC
******************************************************
$$SOE
 2018-Nov-21 07:57  m  11 59 36.844698 -08 09 50.15507
 2018-Nov-21 07:58  m  11 59 36.989667 -08 09 50.16288
 2018-Nov-21 07:59  m  11 59 37.134629 -08 09 50.17072
 2018-Nov-21 08:00  m  11 59 37.279585 -08 09 50.17860
 2018-Nov-21 08:01  m  11 59 37.424535 -08 09 50.18652
 2018-Nov-21 08:02  m  11 59 37.569478 -08 09 50.19447
 2018-Nov-21 08:03  m  11 59 37.714414 -08 09 50.20246
 2018-Nov-21 08:04  m  11 59 37.859344 -08 09 50.21048
 2018-Nov-21 08:05  m  11 59 38.004267 -08 09 50.21854
 2018-Nov-21 08:06  m  11 59 38.149184 -08 09 50.22663
 2018-Nov-21 08:07  m  11 59 38.294093 -08 09 50.23475
 2018-Nov-21 08:08  m  11 59 38.438996 -08 09 50.24292
 2018-Nov-21 08:09  m  11 59 38.583892 -08 09 50.25111
 2018-Nov-21 08:10  m  11 59 38.728780 -08 09 50.25934
 2018-Nov-21 08:11  m  11 59 38.873662 -08 09 50.26761
 2018-Nov-21 08:12  m  11 59 39.018536 -08 09 50.27591
 2018-Nov-21 08:13  m  11 59 39.163403 -08 09 50.28424
 2018-Nov-21 08:14  m  11 59 39.308263 -08 09 50.29261
 2018-Nov-21 08:15  m  11 59 39.453116 -08 09 50.30101
 2018-Nov-21 08:16  m  11 59 39.597961 -08 09 50.30945
 2018-Nov-21 08:17  m  11 59 39.742799 -08 09 50.31792
 2018-Nov-21 08:18  m  11 59 39.887629 -08 09 50.32642
 2018-Nov-21 08:19  m  11 59 40.032452 -08 09 50.33496
 2018-Nov-21 08:20  m  11 59 40.177267 -08 09 50.34353
 2018-Nov-21 08:21  m  11 59 40.322075 -08 09 50.35214
 2018-Nov-21 08:22  m  11 59 40.466874 -08 09 50.36078
 2018-Nov-21 08:23  m  11 59 40.611666 -08 09 50.36946
 2018-Nov-21 08:24  m  11 59 40.756450 -08 09 50.37816
 2018-Nov-21 08:25  m  11 59 40.901227 -08 09 50.38690
 2018-Nov-21 08:26  m  11 59 41.045995 -08 09 50.39568
 2018-Nov-21 08:27  m  11 59 41.190755 -08 09 50.40449
 2018-Nov-21 08:28  m  11 59 41.335507 -08 09 50.41333
 2018-Nov-21 08:29  m  11 59 41.480251 -08 09 50.42220
 2018-Nov-21 08:30  m  11 59 41.624987 -08 09 50.43111
 2018-Nov-21 08:31  m  11 59 41.769714 -08 09 50.44005
 2018-Nov-21 08:32  m  11 59 41.914433 -08 09 50.44903
 2018-Nov-21 08:33  m  11 59 42.059144 -08 09 50.45803
 2018-Nov-21 08:34  m  11 59 42.203847 -08 09 50.46707
 2018-Nov-21 08:35  m  11 59 42.348540 -08 09 50.47615
 2018-Nov-21 08:36  m  11 59 42.493226 -08 09 50.48525
 2018-Nov-21 08:37  m  11 59 42.637902 -08 09 50.49439
 2018-Nov-21 08:38  m  11 59 42.782571 -08 09 50.50356
 2018-Nov-21 08:39  m  11 59 42.927230 -08 09 50.51276
 2018-Nov-21 08:40  m  11 59 43.071880 -08 09 50.52200
 2018-Nov-21 08:41  m  11 59 43.216522 -08 09 50.53127
 2018-Nov-21 08:42  m  11 59 43.361155 -08 09 50.54057
 2018-Nov-21 08:43  m  11 59 43.505779 -08 09 50.54990
 2018-Nov-21 08:44  m  11 59 43.650394 -08 09 50.55926
 2018-Nov-21 08:45  m  11 59 43.795000 -08 09 50.56866
 2018-Nov-21 08:46  m  11 59 43.939597 -08 09 50.57809
 2018-Nov-21 08:47  m  11 59 44.084184 -08 09 50.58755
 2018-Nov-21 08:48  m  11 59 44.228763 -08 09 50.59704
 2018-Nov-21 08:49  m  11 59 44.373332 -08 09 50.60656
 2018-Nov-21 08:50  m  11 59 44.517892 -08 09 50.61612
 2018-Nov-21 08:51  m  11 59 44.662442 -08 09 50.62570
 2018-Nov-21 08:52  m  11 59 44.806983 -08 09 50.63532
 2018-Nov-21 08:53  m  11 59 44.951515 -08 09 50.64497
 2018-Nov-21 08:54  m  11 59 45.096037 -08 09 50.65465
 2018-Nov-21 08:55  m  11 59 45.240550 -08 09 50.66436
 2018-Nov-21 08:56  m  11 59 45.385052 -08 09 50.67410
 2018-Nov-21 08:57  m  11 59 45.529545 -08 09 50.68387
 2018-Nov-21 08:58  m  11 59 45.674029 -08 09 50.69368
 2018-Nov-21 08:59  m  11 59 45.818502 -08 09 50.70351
 2018-Nov-21 09:00  m  11 59 45.962966 -08 09 50.71338
 2018-Nov-21 09:01  m  11 59 46.107420 -08 09 50.72327
 2018-Nov-21 09:02  m  11 59 46.251864 -08 09 50.73320
 2018-Nov-21 09:03  m  11 59 46.396298 -08 09 50.74316
 2018-Nov-21 09:04  m  11 59 46.540721 -08 09 50.75314
 2018-Nov-21 09:05  m  11 59 46.685135 -08 09 50.76316
 2018-Nov-21 09:06  m  11 59 46.829539 -08 09 50.77321
 2018-Nov-21 09:07  m  11 59 46.973932 -08 09 50.78328
 2018-Nov-21 09:08  m  11 59 47.118315 -08 09 50.79339
 2018-Nov-21 09:09  m  11 59 47.262688 -08 09 50.80352
 2018-Nov-21 09:10  m  11 59 47.407050 -08 09 50.81369
 2018-Nov-21 09:11  m  11 59 47.551402 -08 09 50.82389
 2018-Nov-21 09:12  m  11 59 47.695744 -08 09 50.83411
 2018-Nov-21 09:13  m  11 59 47.840075 -08 09 50.84437
 2018-Nov-21 09:14  m  11 59 47.984395 -08 09 50.85465
 2018-Nov-21 09:15  m  11 59 48.128705 -08 09 50.86496
 2018-Nov-21 09:16  m  11 59 48.273004 -08 09 50.87531
 2018-Nov-21 09:17  m  11 59 48.417292 -08 09 50.88568
 2018-Nov-21 09:18  m  11 59 48.561570 -08 09 50.89608
 2018-Nov-21 09:19  m  11 59 48.705837 -08 09 50.90650
 2018-Nov-21 09:20  m  11 59 48.850093 -08 09 50.91696
 2018-Nov-21 09:21  m  11 59 48.994338 -08 09 50.92745
 2018-Nov-21 09:22  m  11 59 49.138572 -08 09 50.93796
 2018-Nov-21 09:23  m  11 59 49.282795 -08 09 50.94851
 2018-Nov-21 09:24  m  11 59 49.427007 -08 09 50.95908
 2018-Nov-21 09:25  m  11 59 49.571208 -08 09 50.96968
 2018-Nov-21 09:26  m  11 59 49.715398 -08 09 50.98030
 2018-Nov-21 09:27  m  11 59 49.859576 -08 09 50.99096
 2018-Nov-21 09:28  m  11 59 50.003744 -08 09 51.00164
 2018-Nov-21 09:29  m  11 59 50.147900 -08 09 51.01235
 2018-Nov-21 09:30  m  11 59 50.292045 -08 09 51.02309
 2018-Nov-21 09:31  m  11 59 50.436178 -08 09 51.03386
 2018-Nov-21 09:32  m  11 59 50.580300 -08 09 51.04465
 2018-Nov-21 09:33  m  11 59 50.724410 -08 09 51.05547
 2018-Nov-21 09:34  m  11 59 50.868509 -08 09 51.06632
 2018-Nov-21 09:35  m  11 59 51.012597 -08 09 51.07719
 2018-Nov-21 09:36  m  11 59 51.156673 -08 09 51.08810
 2018-Nov-21 09:37  m  11 59 51.300737 -08 09 51.09902
 2018-Nov-21 09:38  m  11 59 51.444789 -08 09 51.10998
 2018-Nov-21 09:39  m  11 59 51.588830 -08 09 51.12096
 2018-Nov-21 09:40  m  11 59 51.732859 -08 09 51.13197
 2018-Nov-21 09:41  m  11 59 51.876876 -08 09 51.14301
 2018-Nov-21 09:42  m  11 59 52.020881 -08 09 51.15407
 2018-Nov-21 09:43  m  11 59 52.164874 -08 09 51.16516
 2018-Nov-21 09:44  m  11 59 52.308856 -08 09 51.17627
 2018-Nov-21 09:45  m  11 59 52.452825 -08 09 51.18741
 2018-Nov-21 09:46  m  11 59 52.596782 -08 09 51.19858
 2018-Nov-21 09:47  m  11 59 52.740728 -08 09 51.20977
 2018-Nov-21 09:48  m  11 59 52.884661 -08 09 51.22099
 2018-Nov-21 09:49  m  11 59 53.028582 -08 09 51.23223
 2018-Nov-21 09:50  m  11 59 53.172490 -08 09 51.24350
 2018-Nov-21 09:51  m  11 59 53.316387 -08 09 51.25479
 2018-Nov-21 09:52  m  11 59 53.460271 -08 09 51.26611
 2018-Nov-21 09:53  m  11 59 53.604143 -08 09 51.27745
 2018-Nov-21 09:54  m  11 59 53.748002 -08 09 51.28882
 2018-Nov-21 09:55  m  11 59 53.891849 -08 09 51.30022
 2018-Nov-21 09:56  m  11 59 54.035684 -08 09 51.31163
 2018-Nov-21 09:57  m  11 59 54.179506 -08 09 51.32308
 2018-Nov-21 09:58  m  11 59 54.323316 -08 09 51.33454
 2018-Nov-21 09:59  m  11 59 54.467113 -08 09 51.34604
